{
  "type": "FeatureCollection",
  "features": [
    {
      "type": "Feature",
      "properties": {
        "norad_id": 34971,
        "name": "COSMOS 2251 DEB",
        "group": "cosmos-2251-debris",
        "lat": -24.005863105876276,
        "lon": -81.71374948143367,
        "alt_km": 761.7429041715804,
        "timestamp": "2025-12-12T09:49:09.127706+00:00",
        "meta_object_name": "COSMOS 2251 DEB",
        "meta_object_id": "1993-036AFA",
        "meta_epoch": "2025-12-11T13:03:07.178112",
        "meta_mean_motion": 14.55631176,
        "meta_eccentricity": 0.00696698,
        "meta_inclination": 73.9786,
        "meta_ra_of_asc_node": 287.2832,
        "meta_arg_of_pericenter": 153.3092,
        "meta_mean_anomaly": 329.2446,
        "meta_ephemeris_type": 0,
        "meta_classification_type": "U",
        "meta_norad_cat_id": 34971,
        "meta_element_set_no": 999,
        "meta_rev_at_epoch": 66155,
        "meta_bstar": 0.00028423964,
        "meta_mean_motion_dot": 1.251e-05,
        "meta_mean_motion_ddot": 0,
        "tle_line1": "1 34971U 93036AFA 25345.54383308  .00001251  00000+0  28424-3 0  9999",
        "tle_line2": "2 34971  73.9786 287.2832 0069669 153.3092 329.2446 14.55631176661559"
      },
      "geometry": {
        "type": "Point",
        "coordinates": [
          -81.71374948143367,
          -24.005863105876276
        ]
      }
    },
    {
      "type": "Feature",
      "properties": {
        "norad_id": 34972,
        "name": "COSMOS 2251 DEB",
        "group": "cosmos-2251-debris",
        "lat": -23.456643239441078,
        "lon": -122.33807124581347,
        "alt_km": 633.4013189223606,
        "timestamp": "2025-12-12T09:49:09.127716+00:00",
        "meta_object_name": "COSMOS 2251 DEB",
        "meta_object_id": "1993-036AFB",
        "meta_epoch": "2025-12-11T15:39:21.883968",
        "meta_mean_motion": 14.72853144,
        "meta_eccentricity": 0.00337724,
        "meta_inclination": 73.9883,
        "meta_ra_of_asc_node": 51.9818,
        "meta_arg_of_pericenter": 211.2794,
        "meta_mean_anomaly": 302.0025,
        "meta_ephemeris_type": 0,
        "meta_classification_type": "U",
        "meta_norad_cat_id": 34972,
        "meta_element_set_no": 999,
        "meta_rev_at_epoch": 87634,
        "meta_bstar": 0.0021673296,
        "meta_mean_motion_dot": 0.00013997,
        "meta_mean_motion_ddot": 0,
        "tle_line1": "1 34972U 93036AFB 25345.65233662  .00013997  00000+0  21673-2 0  9997",
        "tle_line2": "2 34972  73.9883  51.9818 0033772 211.2794 302.0025 14.72853144876344"
      },
      "geometry": {
        "type": "Point",
        "coordinates": [
          -122.33807124581347,
          -23.456643239441078
        ]
      }
    },
    {
      "type": "Feature",
      "properties": {
        "norad_id": 34976,
        "name": "COSMOS 2251 DEB",
        "group": "cosmos-2251-debris",
        "lat": -62.144325804158385,
        "lon": -85.84884549538567,
        "alt_km": 630.4066828706164,
        "timestamp": "2025-12-12T09:49:09.127727+00:00",
        "meta_object_name": "COSMOS 2251 DEB",
        "meta_object_id": "1993-036AFF",
        "meta_epoch": "2025-12-11T22:59:24.604224",
        "meta_mean_motion": 14.76537918,
        "meta_eccentricity": 0.0047836,
        "meta_inclination": 74.0576,
        "meta_ra_of_asc_node": 307.7776,
        "meta_arg_of_pericenter": 354.7076,
        "meta_mean_anomaly": 61.5289,
        "meta_ephemeris_type": 0,
        "meta_classification_type": "U",
        "meta_norad_cat_id": 34976,
        "meta_element_set_no": 999,
        "meta_rev_at_epoch": 88262,
        "meta_bstar": 0.0023336,
        "meta_mean_motion_dot": 0.00016588,
        "meta_mean_motion_ddot": 0,
        "tle_line1": "1 34976U 93036AFF 25345.95792366  .00016588  00000+0  23336-2 0  9992",
        "tle_line2": "2 34976  74.0576 307.7776 0047836 354.7076  61.5289 14.76537918882625"
      },
      "geometry": {
        "type": "Point",
        "coordinates": [
          -85.84884549538567,
          -62.144325804158385
        ]
      }
    },
    {
      "type": "Feature",
      "properties": {
        "norad_id": 34979,
        "name": "COSMOS 2251 DEB",
        "group": "cosmos-2251-debris",
        "lat": -20.5223584078465,
        "lon": -98.23532656257153,
        "alt_km": 602.1520624830164,
        "timestamp": "2025-12-12T09:49:09.127737+00:00",
        "meta_object_name": "COSMOS 2251 DEB",
        "meta_object_id": "1993-036AFJ",
        "meta_epoch": "2025-12-11T11:11:32.589024",
        "meta_mean_motion": 14.7931679,
        "meta_eccentricity": 0.00490437,
        "meta_inclination": 74.0395,
        "meta_ra_of_asc_node": 269.7685,
        "meta_arg_of_pericenter": 347.9199,
        "meta_mean_anomaly": 12.0796,
        "meta_ephemeris_type": 0,
        "meta_classification_type": "U",
        "meta_norad_cat_id": 34979,
        "meta_element_set_no": 999,
        "meta_rev_at_epoch": 88201,
        "meta_bstar": 0.0026514849,
        "meta_mean_motion_dot": 0.00020168,
        "meta_mean_motion_ddot": 0,
        "tle_line1": "1 34979U 93036AFJ 25345.46634941  .00020168  00000+0  26515-2 0  9996",
        "tle_line2": "2 34979  74.0395 269.7685 0049043 347.9199  12.0796 14.79316790882018"
      },
      "geometry": {
        "type": "Point",
        "coordinates": [
          -98.23532656257153,
          -20.5223584078465
        ]
      }
    },
    {
      "type": "Feature",
      "properties": {
        "norad_id": 34990,
        "name": "COSMOS 2251 DEB",
        "group": "cosmos-2251-debris",
        "lat": 50.24517080480232,
        "lon": 51.83464860319426,
        "alt_km": 757.2517546156214,
        "timestamp": "2025-12-12T09:49:09.127762+00:00",
        "meta_object_name": "COSMOS 2251 DEB",
        "meta_object_id": "1993-036AFN",
        "meta_epoch": "2025-12-11T11:35:34.713024",
        "meta_mean_motion": 14.42369611,
        "meta_eccentricity": 0.001637,
        "meta_inclination": 74.0455,
        "meta_ra_of_asc_node": 253.6657,
        "meta_arg_of_pericenter": 317.4187,
        "meta_mean_anomaly": 42.5699,
        "meta_ephemeris_type": 0,
        "meta_classification_type": "U",
        "meta_norad_cat_id": 34990,
        "meta_element_set_no": 999,
        "meta_rev_at_epoch": 87328,
        "meta_bstar": 0.00064071244,
        "meta_mean_motion_dot": 2.095e-05,
        "meta_mean_motion_ddot": 0,
        "tle_line1": "1 34990U 93036AFN 25345.48304066  .00002095  00000+0  64071-3 0  9992",
        "tle_line2": "2 34990  74.0455 253.6657 0016370 317.4187  42.5699 14.42369611873284"
      },
      "geometry": {
        "type": "Point",
        "coordinates": [
          51.83464860319426,
          50.24517080480232
        ]
      }
    },
    {
      "type": "Feature",
      "properties": {
        "norad_id": 34997,
        "name": "COSMOS 2251 DEB",
        "group": "cosmos-2251-debris",
        "lat": -65.59854946392664,
        "lon": -87.78019733245462,
        "alt_km": 677.4426468121592,
        "timestamp": "2025-12-12T09:49:09.127772+00:00",
        "meta_object_name": "COSMOS 2251 DEB",
        "meta_object_id": "1993-036AFV",
        "meta_epoch": "2025-12-09T15:42:21.613248",
        "meta_mean_motion": 14.45493879,
        "meta_eccentricity": 0.00979027,
        "meta_inclination": 73.8812,
        "meta_ra_of_asc_node": 317.0047,
        "meta_arg_of_pericenter": 292.5764,
        "meta_mean_anomaly": 66.5057,
        "meta_ephemeris_type": 0,
        "meta_classification_type": "U",
        "meta_norad_cat_id": 34997,
        "meta_element_set_no": 999,
        "meta_rev_at_epoch": 70702,
        "meta_bstar": 0.002944294,
        "meta_mean_motion_dot": 0.00010999,
        "meta_mean_motion_ddot": 0,
        "tle_line1": "1 34997U 93036AFV 25343.65441682  .00010999  00000+0  29443-2 0  9997",
        "tle_line2": "2 34997  73.8812 317.0047 0097902 292.5764  66.5057 14.45493879707026"
      },
      "geometry": {
        "type": "Point",
        "coordinates": [
          -87.78019733245462,
          -65.59854946392664
        ]
      }
    },
    {
      "type": "Feature",
      "properties": {
        "norad_id": 34998,
        "name": "COSMOS 2251 DEB",
        "group": "cosmos-2251-debris",
        "lat": 16.024910402956852,
        "lon": -24.117922051199407,
        "alt_km": 740.3341686042395,
        "timestamp": "2025-12-12T09:49:09.127783+00:00",
        "meta_object_name": "COSMOS 2251 DEB",
        "meta_object_id": "1993-036AFW",
        "meta_epoch": "2025-12-11T22:10:47.423136",
        "meta_mean_motion": 14.4927461,
        "meta_eccentricity": 0.0021167,
        "meta_inclination": 74.0099,
        "meta_ra_of_asc_node": 161.5169,
        "meta_arg_of_pericenter": 307.2207,
        "meta_mean_anomaly": 206.8589,
        "meta_ephemeris_type": 0,
        "meta_classification_type": "U",
        "meta_norad_cat_id": 34998,
        "meta_element_set_no": 999,
        "meta_rev_at_epoch": 87408,
        "meta_bstar": 0.00088598,
        "meta_mean_motion_dot": 3.362e-05,
        "meta_mean_motion_ddot": 0,
        "tle_line1": "1 34998U 93036AFW 25345.92415999  .00003362  00000+0  88598-3 0  9995",
        "tle_line2": "2 34998  74.0099 161.5169 0021167 307.2207 206.8589 14.49274610874084"
      },
      "geometry": {
        "type": "Point",
        "coordinates": [
          -24.117922051199407,
          16.024910402956852
        ]
      }
    }
  ]
}